STARLINK-37587          
1 69837U 26154U   26199.25002315 -.00032664  00000+0 -16244-3 0  9998
2 69837  53.1590 277.4830 0001209  89.3704 104.8646 15.80890125  3137
STARLINK-37590          
1 69838U 26154V   26199.25002315 -.00028948  00000+0 -14348-3 0  9992
2 69838  53.1589 277.4743 0000901 106.2921  92.2107 15.80893531  3009
STARLINK-37589          
1 69839U 26154W   26199.25002315 -.00028092  00000+0 -13912-3 0  9999
2 69839  53.1590 277.4653 0001257  98.5259 104.2518 15.80891253  3137
STARLINK-37487          
1 69840U 26154X   26199.25002315 -.02292984  00000+0 -11512-1 0  9998
2 69840  53.1574 276.9904 0000798  83.2728 347.7545 15.84009220  3138
STARLINK-37433          
1 69841U 26154Y   26199.25002315 -.01144826  00000+0 -62578-2 0  9998
2 69841  53.1584 276.9852 0000657  78.5449 354.8757 15.81640468  3263
STARLINK-37588          
1 69842U 26154Z   26199.25002315 -.02332732  00000+0 -11606-1 0  9990
2 69842  53.1568 276.9571 0001020  72.0674  14.9359 15.84249941  3163
STARLINK-37579          
1 69843U 26154AA  26199.25002315 -.01797717  00000+0 -93862-2 0  9993
2 69843  53.1579 276.9559 0000677  94.8331 352.6711 15.82949126  3165
STARLINK-37584          
1 69844U 26154AB  26199.25002315 -.01828332  00000+0 -98818-2 0  9998
2 69844  53.1580 276.9454 0001187  41.9703  50.4480 15.82265568  3162
STARLINK-37606          
1 69845U 26154AC  26199.25002315 -.02040345  00000+0 -10906-1 0  9991
2 69845  53.1578 276.9353 0001363 100.3301 356.5776 15.82850254  3168
STARLINK-37603          
1 69846U 26154AD  26199.25002315 -.00710988  00000+0 -38312-2 0  9999
2 69846  53.1582 276.9258 0000928  61.9315  39.6210 15.81281017  3167
STARLINK-37595          
1 69847U 26154AE  26199.25002315 -.01205805  00000+0 -65817-2 0  9998
2 69847  53.1583 276.9149 0000812  90.3132  16.0907 15.81803769  3169
QIANFAN-219             
1 69848U 26155A   26199.24032558  .00000054  00000+0  16442-4 0  9999
2 69848  89.0064  60.5996 0030802 212.7163 147.2124 14.26455350  1810
QIANFAN-220             
1 69849U 26155B   26198.83583785 -.02023166  00000+0 -11202+1 0  9995
2 69849  89.0064  60.6507 0034003 211.1294 148.7880 14.15144118  1758
QIANFAN-221             
1 69850U 26155C   26199.23938367  .00000192  00000+0  73103-4 0  9994
2 69850  89.0064  60.5994 0030608 213.1536 146.7741 14.26647750  1810
QIANFAN-222             
1 69851U 26155D   26198.83195585  .00000049  00000+0  15570-4 0  9992
2 69851  89.0065  60.6495 0029555 214.6997 145.2267 14.22185075  1758
QIANFAN-223             
1 69852U 26155E   26199.25189267  .00000165  00000+0  67980-4 0  9991
2 69852  89.0065  60.6016 0029342 212.6138 147.3242 14.22140218  1810
QIANFAN-224             
1 69853U 26155F   26198.89566005 -.01809487  00000+0 -93450+0 0  9993
2 69853  89.0052  60.6399 0031114 224.5648 135.3039 14.18497223  1760
QIANFAN-225             
1 69854U 26155G   26199.24718111  .00000211  00000+0  87960-4 0  9990
2 69854  89.0064  60.6005 0029265 213.6162 146.3174 14.22451026  1816
QIANFAN-226             
1 69855U 26155H   26199.24579979  .00000125  00000+0  49235-4 0  9995
2 69855  89.0063  60.6003 0030301 213.2250 146.7040 14.22558888  1811
QIANFAN-227             
1 69856U 26155J   26198.81892301 -.02024950  00000+0 -10101+1 0  9997
2 69856  89.0057  60.6476 0029596 214.6719 145.2543 14.20810576  1756
QIANFAN-228             
1 69857U 26155K   26198.81810533 -.01944972  00000+0 -96549+0 0  9998
2 69857  89.0054  60.6479 0030789 216.5012 143.4081 14.20885407  1752
QIANFAN-229             
1 69858U 26155L   26199.23886978  .00000208  00000+0  79571-4 0  9995
2 69858  89.0064  60.5994 0030739 212.7783 147.1505 14.26690081  1810
QIANFAN-230             
1 69859U 26155M   26198.90384435 -.01931944  00000+0 -10463+1 0  9994
2 69859  89.0054  60.6411 0032961 222.0372 137.8286 14.16167691  1763
QIANFAN-231             
1 69860U 26155N   26199.24251873  .00000199  00000+0  76961-4 0  9998
2 69860  89.0065  60.6002 0030820 212.1200 147.8116 14.26096904  1813
QIANFAN-232             
1 69861U 26155P   26199.02832197  .00000200  00000+0  76523-4 0  9996
2 69861  89.0063  60.6233 0030593 214.1355 145.7872 14.26736537  1783
QIANFAN-233             
1 69862U 26155Q   26199.23860057  .00000164  00000+0  61596-4 0  9999
2 69862  89.0064  60.5994 0030566 213.2043 146.7233 14.26752454  1814
QIANFAN-234             
1 69863U 26155R   26199.23854261  .00000193  00000+0  73442-4 0  9995
2 69863  89.0065  60.5995 0030536 213.2656 146.6619 14.26759078  1810
QIANFAN-235             
1 69864U 26155S   26199.23849051  .00000205  00000+0  78539-4 0  9993
2 69864  89.0064  60.5993 0030496 213.2857 146.6420 14.26765036  1817
QIANFAN-236             
1 69865U 26155T   26199.23844554  .00000184  00000+0  69885-4 0  9997
2 69865  89.0064  60.5994 0030466 213.3040 146.6238 14.26770201  1818
QIANFAN-237             
1 69866U 26155U   26199.23837099  .00000174  00000+0  65742-4 0  9991
2 69866  89.0064  60.5994 0030437 213.3453 146.5825 14.26778379  1809
